{
    "links": {
        "self": "http://www.neowsapp.com/rest/v1/neo/3748486?api_key=iIulBulltgU6a56xZRHN4H3l9WmuAYTsLGpBGhQ2"
    },
    "id": "3748486",
    "neo_reference_id": "3748486",
    "name": "(2016 FT13)",
    "designation": "2016 FT13",
    "nasa_jpl_url": "http://ssd.jpl.nasa.gov/sbdb.cgi?sstr=3748486",
    "absolute_magnitude_h": 26.5,
    "estimated_diameter": {
        "kilometers": {
            "estimated_diameter_min": 0.0133215567,
            "estimated_diameter_max": 0.0297879063
        },
        "meters": {
            "estimated_diameter_min": 13.3215566698,
            "estimated_diameter_max": 29.7879062798
        },
        "miles": {
            "estimated_diameter_min": 0.008277629,
            "estimated_diameter_max": 0.0185093411
        },
        "feet": {
            "estimated_diameter_min": 43.7058959846,
            "estimated_diameter_max": 97.7293544391
        }
    },
    "is_potentially_hazardous_asteroid": false,
    "close_approach_data": [
        {
            "close_approach_date": "2016-04-07",
            "close_approach_date_full": "2016-Apr-07 06:21",
            "epoch_date_close_approach": 1460010060000,
            "relative_velocity": {
                "kilometers_per_second": "13.438797664",
                "kilometers_per_hour": "48379.6715904112",
                "miles_per_hour": "30061.2464946085"
            },
            "miss_distance": {
                "astronomical": "0.0251943993",
                "lunar": "9.8006213277",
                "kilometers": "3769028.471209491",
                "miles": "2341965.6936173358"
            },
            "orbiting_body": "Earth"
        },
        {
            "close_approach_date": "2143-02-26",
            "close_approach_date_full": "2143-Feb-26 17:18",
            "epoch_date_close_approach": 5464257480000,
            "relative_velocity": {
                "kilometers_per_second": "5.4199494838",
                "kilometers_per_hour": "19511.8181417243",
                "miles_per_hour": "12123.8850003398"
            },
            "miss_distance": {
                "astronomical": "0.756990557",
                "lunar": "294.469326673",
                "kilometers": "113244174.93731359",
                "miles": "70366667.360323942"
            },
            "orbiting_body": "Juptr"
        }
    ],
    "orbital_data": {
        "orbit_id": "5",
        "orbit_determination_date": "2017-04-06 08:27:06",
        "first_observation_date": "2016-03-29",
        "last_observation_date": "2016-04-05",
        "data_arc_in_days": 7,
        "observations_used": 21,
        "orbit_uncertainty": "8",
        "minimum_orbit_intersection": ".00800604",
        "jupiter_tisserand_invariant": "3.071",
        "epoch_osculation": "2457481.5",
        "eccentricity": ".6517617663123978",
        "semi_major_axis": "2.603697960888804",
        "inclination": "1.744322423064593",
        "ascending_node_longitude": "215.9182871866121",
        "orbital_period": "1534.561617160419",
        "perihelion_distance": ".9067071789559287",
        "perihelion_argument": "25.37453377948634",
        "aphelion_distance": "4.300688742821679",
        "perihelion_time": "2457516.938486795349",
        "mean_anomaly": "351.686319334682",
        "mean_motion": ".2345946855272913",
        "equinox": "J2000",
        "orbit_class": {
            "orbit_class_type": "APO",
            "orbit_class_description": "Near-Earth asteroid orbits which cross the Earth’s orbit similar to that of 1862 Apollo",
            "orbit_class_range": "a (semi-major axis) > 1.0 AU; q (perihelion) < 1.017 AU"
        }
    },
    "is_sentry_object": false
}